OBJECT_NAME,OBJECT_ID,EPOCH,MEAN_MOTION,ECCENTRICITY,INCLINATION,RA_OF_ASC_NODE,ARG_OF_PERICENTER,MEAN_ANOMALY,EPHEMERIS_TYPE,CLASSIFICATION_TYPE,NORAD_CAT_ID,ELEMENT_SET_NO,REV_AT_EPOCH,BSTAR,MEAN_MOTION_DOT,MEAN_MOTION_DDOT
FENGYUN 3D,2017-072A,2026-06-07T13:30:24.445152,14.19737211,.0002647,99.0126,132.8118,76.7583,283.3887,0,U,43010,999,44362,.88729E-4,.142E-5,0
NOAA 20 (JPSS-1),2017-073A,2026-06-07T09:57:51.660864,14.19510018,.0000503,98.7770,97.9648,39.3061,320.8152,0,U,43013,999,44308,.5813E-4,.78E-6,0
GOES 17,2018-022A,2026-06-07T11:17:23.917344,1.00272183,.0000671,0.9116,85.8814,7.4926,242.3626,0,U,43226,999,3032,0,-.168E-5,0
SENTINEL-3B,2018-039A,2026-06-07T10:35:58.687008,14.26739074,.0000894,98.6250,226.1134,77.1201,283.0079,0,U,43437,999,42273,.68878E-4,.123E-5,0
FENGYUN 2H,2018-050A,2026-06-07T12:05:35.126592,1.00271523,.0001486,3.0057,79.1858,126.4305,311.1417,0,U,43491,999,2934,0,-.116E-5,0
METOP-C,2018-087A,2026-06-07T10:11:56.933664,14.21509629,.0001396,98.6647,218.2066,139.8233,220.3048,0,U,43689,999,39344,.76408E-4,.124E-5,0
GEO-KOMPSAT-2A,2018-100A,2026-06-07T10:36:53.347104,1.00271497,.0002359,0.0496,134.0305,309.3152,99.9900,0,U,43823,999,2753,0,-.329E-5,0
METEOR-M2 2,2019-038A,2026-06-07T13:13:00.001344,14.24363408,.0002339,98.9147,145.6944,62.0096,298.1318,0,U,44387,999,35992,.51063E-4,.72E-6,0
ARKTIKA-M 1,2021-016A,2026-06-02T00:56:25.095840,2.00628509,.72832396,63.2379,59.8266,269.8643,14.6915,0,U,47719,999,3848,0,-.2E-5,0
FENGYUN 3E,2021-062A,2026-06-07T13:08:43.251648,14.19904672,.0002712,98.7496,162.0636,100.9197,259.2284,0,U,49008,999,25521,.16264E-3,.301E-5,0
GOES 18,2022-021A,2026-06-07T11:03:55.209024,1.00272290,.0000573,0.0399,139.4951,356.1193,149.2331,0,U,51850,999,649,0,.111E-5,0
NOAA 21 (JPSS-2),2022-150A,2026-06-07T10:45:45.164160,14.19563841,.0001092,98.7058,97.4013,178.0914,182.0266,0,U,54234,999,18516,.59933E-4,.83E-6,0
METEOSAT-12 (MTG-I1),2022-170C,2026-06-07T08:17:31.071264,1.00271595,.000347,0.7271,21.2629,70.7162,287.7262,0,U,54743,999,1287,0,.6E-7,0
TIANMU-1 03,2023-039A,2026-06-07T11:28:14.346048,15.47009719,.0004093,97.5237,332.0694,123.3023,236.8619,0,U,55973,999,17933,.31455E-3,.15806E-3,0
TIANMU-1 04,2023-039B,2026-06-07T12:51:33.056064,15.47599002,.0004716,97.5174,331.2827,120.1841,239.9877,0,U,55974,999,17935,.31257E-3,.16031E-3,0
TIANMU-1 05,2023-039C,2026-06-07T12:33:01.203840,15.46937289,.0003745,97.5218,331.7349,137.8278,222.3260,0,U,55975,999,17932,.30627E-3,.15347E-3,0
TIANMU-1 06,2023-039D,2026-06-07T11:22:27.374880,15.47504973,.0003995,97.5226,332.3099,134.6027,225.5549,0,U,55976,999,17934,.31703E-3,.16207E-3,0
FENGYUN 3G,2023-055A,2026-06-07T12:26:05.750304,15.54381406,.0005566,49.9935,35.8540,160.2666,199.8518,0,U,56232,999,17850,.39076E-3,.25767E-3,0
METEOR-M2 3,2023-091A,2026-06-07T13:01:37.576992,14.24046034,.0003794,98.6085,213.7180,181.2452,178.8718,0,U,57166,999,15314,.17663E-4,-.3E-7,0
TIANMU-1 07,2023-101A,2026-06-07T11:37:42.057120,15.29695212,.0003511,97.2595,209.3764,141.6154,218.5337,0,U,57399,999,16016,.24334E-3,.6928E-4,0
TIANMU-1 08,2023-101B,2026-06-07T17:06:29.527200,15.29703223,.0005086,97.2585,209.3714,138.3561,221.8068,0,U,57400,999,16019,.23079E-3,.6569E-4,0
TIANMU-1 09,2023-101C,2026-06-07T12:00:17.056224,15.29728213,.0003883,97.2542,208.5845,149.3201,210.8267,0,U,57401,999,16016,.24295E-3,.6924E-4,0
TIANMU-1 10,2023-101D,2026-06-07T11:13:25.265856,15.29698684,.0005471,97.2622,209.5934,152.1817,207.9717,0,U,57402,999,16015,.24127E-3,.6871E-4,0
FENGYUN 3F,2023-111A,2026-06-07T11:04:24.891744,14.19937508,.0001577,98.6837,228.6510,99.7868,260.3486,0,U,57490,999,14748,.45712E-4,.54E-6,0
ARKTIKA-M 2,2023-198A,2026-06-03T07:17:21.587712,2.00591941,.68985494,63.2209,155.9142,267.4684,18.7857,0,U,58584,999,1804,0,.15E-5,0
TIANMU-1 11,2023-205A,2026-06-07T13:13:54.036768,15.26895778,.0010042,97.3452,180.2600,48.1377,312.0717,0,U,58645,999,13605,.24144E-3,.6314E-4,0
TIANMU-1 12,2023-205B,2026-06-07T12:30:53.205696,15.26857392,.0007903,97.3441,179.9883,35.7307,324.4459,0,U,58646,999,13603,.25035E-3,.6539E-4,0
TIANMU-1 13,2023-205C,2026-06-07T13:15:54.044640,15.26712130,.0007095,97.3468,180.2902,17.0030,343.1446,0,U,58647,999,13603,.24885E-3,.6469E-4,0
TIANMU-1 14,2023-205D,2026-06-07T12:55:00.194880,15.26756819,.0008073,97.3405,179.4654,20.3665,339.7894,0,U,58648,999,13603,.25084E-3,.6532E-4,0
TIANMU-1 19,2023-208A,2026-06-07T13:14:26.680416,15.31428999,.0004639,97.4492,274.8042,7.7842,352.3470,0,U,58660,999,13585,.29217E-3,.8793E-4,0
TIANMU-1 20,2023-208B,2026-06-07T11:11:37.040352,15.32619563,.0006905,97.4435,275.3439,10.8878,349.2512,0,U,58661,999,13593,.29376E-3,.9182E-4,0
