FENGYUN 3D              
1 43010U 17072A   26158.56278293  .00000142  00000+0  88729-4 0  9993
2 43010  99.0126 132.8118 0002647  76.7583 283.3887 14.19737211443620
NOAA 20 (JPSS-1)        
1 43013U 17073A   26158.41518126  .00000078  00000+0  58130-4 0  9994
2 43013  98.7770  97.9648 0000503  39.3061 320.8152 14.19510018443084
GOES 17                 
1 43226U 18022A   26158.47041571 -.00000168  00000+0  00000+0 0  9995
2 43226   0.9116  85.8814 0000671   7.4926 242.3626  1.00272183 30329
SENTINEL-3B             
1 43437U 18039A   26158.44165147  .00000123  00000+0  68878-4 0  9992
2 43437  98.6250 226.1134 0000894  77.1201 283.0079 14.26739074422731
FENGYUN 2H              
1 43491U 18050A   26158.50387878 -.00000116  00000+0  00000+0 0  9990
2 43491   3.0057  79.1858 0001486 126.4305 311.1417  1.00271523 29343
METOP-C                 
1 43689U 18087A   26158.42496451  .00000124  00000+0  76408-4 0  9996
2 43689  98.6647 218.2066 0001396 139.8233 220.3048 14.21509629393446
GEO-KOMPSAT-2A          
1 43823U 18100A   26158.44228411 -.00000329  00000+0  00000+0 0  9991
2 43823   0.0496 134.0305 0002359 309.3152  99.9900  1.00271497 27533
METEOR-M2 2             
1 44387U 19038A   26158.55069446  .00000072  00000+0  51063-4 0  9995
2 44387  98.9147 145.6944 0002339  62.0096 298.1318 14.24363408359924
ARKTIKA-M 1             
1 47719U 21016A   26153.03917935 -.00000200  00000+0  00000+0 0  9993
2 47719  63.2379  59.8266 7283239 269.8643  14.6915  2.00628509 38489
FENGYUN 3E              
1 49008U 21062A   26158.54772282  .00000301  00000+0  16264-3 0  9996
2 49008  98.7496 162.0636 0002712 100.9197 259.2284 14.19904672255219
GOES 18                 
1 51850U 22021A   26158.46105566  .00000111  00000+0  00000+0 0  9992
2 51850   0.0399 139.4951 0000573 356.1193 149.2331  1.00272290  6492
NOAA 21 (JPSS-2)        
1 54234U 22150A   26158.44843940  .00000083  00000+0  59933-4 0  9999
2 54234  98.7058  97.4013 0001092 178.0914 182.0266 14.19563841185161
METEOSAT-12 (MTG-I1)    
1 54743U 22170C   26158.34549851  .00000006  00000+0  00000+0 0  9990
2 54743   0.7271  21.2629 0003470  70.7162 287.7262  1.00271595 12873
TIANMU-1 03             
1 55973U 23039A   26158.47794382  .00015806  00000+0  31455-3 0  9992
2 55973  97.5237 332.0694 0004093 123.3023 236.8619 15.47009719179332
TIANMU-1 04             
1 55974U 23039B   26158.53579926  .00016031  00000+0  31257-3 0  9996
2 55974  97.5174 331.2827 0004716 120.1841 239.9877 15.47599002179358
TIANMU-1 05             
1 55975U 23039C   26158.52293060  .00015347  00000+0  30627-3 0  9997
2 55975  97.5218 331.7349 0003745 137.8278 222.3260 15.46937289179323
TIANMU-1 06             
1 55976U 23039D   26158.47392795  .00016207  00000+0  31703-3 0  9999
2 55976  97.5226 332.3099 0003995 134.6027 225.5549 15.47504973179344
FENGYUN 3G              
1 56232U 23055A   26158.51812211  .00025767  00000+0  39076-3 0  9990
2 56232  49.9935  35.8540 0005566 160.2666 199.8518 15.54381406178502
METEOR-M2 3             
1 57166U 23091A   26158.54279603 -.00000003  00000+0  17663-4 0  9998
2 57166  98.6085 213.7180 0003794 181.2452 178.8718 14.24046034153143
TIANMU-1 07             
1 57399U 23101A   26158.48451455  .00006928  00000+0  24334-3 0  9991
2 57399  97.2595 209.3764 0003511 141.6154 218.5337 15.29695212160160
TIANMU-1 08             
1 57400U 23101B   26158.71284175  .00006569  00000+0  23079-3 0  9999
2 57400  97.2585 209.3714 0005086 138.3561 221.8068 15.29703223160194
TIANMU-1 09             
1 57401U 23101C   26158.50019741  .00006924  00000+0  24295-3 0  9998
2 57401  97.2542 208.5845 0003883 149.3201 210.8267 15.29728213160162
TIANMU-1 10             
1 57402U 23101D   26158.46765354  .00006871  00000+0  24127-3 0  9997
2 57402  97.2622 209.5934 0005471 152.1817 207.9717 15.29698684160156
FENGYUN 3F              
1 57490U 23111A   26158.46139921  .00000054  00000+0  45712-4 0  9991
2 57490  98.6837 228.6510 0001577  99.7868 260.3486 14.19937508147489
ARKTIKA-M 2             
1 58584U 23198A   26154.30372208  .00000150  00000+0  00000+0 0  9990
2 58584  63.2209 155.9142 6898549 267.4684  18.7857  2.00591941 18047
TIANMU-1 11             
1 58645U 23205A   26158.55131987  .00006314  00000+0  24144-3 0  9992
2 58645  97.3452 180.2600 0010042  48.1377 312.0717 15.26895778136058
TIANMU-1 12             
1 58646U 23205B   26158.52144914  .00006539  00000+0  25035-3 0  9993
2 58646  97.3441 179.9883 0007903  35.7307 324.4459 15.26857392136030
TIANMU-1 13             
1 58647U 23205C   26158.55270885  .00006469  00000+0  24885-3 0  9998
2 58647  97.3468 180.2902 0007095  17.0030 343.1446 15.26712130136039
TIANMU-1 14             
1 58648U 23205D   26158.53819670  .00006532  00000+0  25084-3 0  9991
2 58648  97.3405 179.4654 0008073  20.3665 339.7894 15.26756819136033
TIANMU-1 19             
1 58660U 23208A   26158.55169769  .00008793  00000+0  29217-3 0  9990
2 58660  97.4492 274.8042 0004639   7.7842 352.3470 15.31428999135856
TIANMU-1 20             
1 58661U 23208B   26158.46640093  .00009182  00000+0  29376-3 0  9994
2 58661  97.4435 275.3439 0006905  10.8878 349.2512 15.32619563135933
